#aV2007  8 22  0  0   .00000000      96 DD+AD WGS84 FIT  NGA
## 1441 259200.00000000   900.00000000 54334  .0000000000000
+   31     1  2  3  4  5  6  7  8  9 10 11 12 13 14 16 17 18
+         19 20 21 22 23 24 25 26 27 28 29 30 31 32  0  0  0
+          0  0  0  0  0  0  0  0  0  0  0  0  0  0  0  0  0
+          0  0  0  0  0  0  0  0  0  0  0  0  0  0  0  0  0
+          0  0  0  0  0  0  0  0  0  0  0  0  0  0  0  0  0
++         0  0  0  0  0  0  0  0  0  0  0  0  0  0  0  0  0
++         0  0  0  0  0  0  0  0  0  0  0  0  0  0  0  0  0
++         0  0  0  0  0  0  0  0  0  0  0  0  0  0  0  0  0
++         0  0  0  0  0  0  0  0  0  0  0  0  0  0  0  0  0
++         0  0  0  0  0  0  0  0  0  0  0  0  0  0  0  0  0
%c cc cc ccc ccc cccc cccc cccc cccc ccccc ccccc ccccc ccccc
%c cc cc ccc ccc cccc cccc cccc cccc ccccc ccccc ccccc ccccc
%f  0.0000000  0.000000000  0.00000000000  0.000000000000000
%f  0.0000000  0.000000000  0.00000000000  0.000000000000000
%i    0    0    0    0      0      0      0      0         0
%i    0    0    0    0      0      0      0      0         0
/*      NGA, ST. LOUIS,MO.                                  
/*   EPHEMERIS COMPUTED FROM  3 DAYS OF DATA                
/* CCCCCCCCCCCCCCCCCCCCCCCCCCCCCCCCCCCCCCCCCCCCCCCCCCCCCCCCC
/* CCCCCCCCCCCCCCCCCCCCCCCCCCCCCCCCCCCCCCCCCCCCCCCCCCCCCCCCC
*  2007  8 22  6 45   .00000000                                                 
P  1 -15978.759950  19094.541248  -8921.596933    147.617236                    
V  1   3529.762719 -11215.618746 -29704.842146       .024353                    
P  2  17517.995468 -12910.189090  14822.756795    130.845677                    
V  2  19506.500916    299.930309 -22795.442873       .027684                    
P  3 -10121.850948  24130.961435   3072.479151    104.865066                    
V  3  -2709.257847  -5297.871703  30853.912687       .053764                    
P  4  25491.317682  -6281.750814   5068.029606      -.010658                    
V  4   6735.160586   2274.702314 -30289.487946      -.024743                    
P  5 -15517.268057 -21403.541904  -3555.700961    315.773023                    
V  5   5225.979792    985.145511 -30777.213977       .377321                    
P  6 -11410.644792 -12648.478855  20560.042240    246.401582                    
V  6  10319.626963 -23663.738797  -8945.390058       .010515                    
P  7 -12942.128053 -10179.835034  21178.449145     -5.022580                    
V  7   9520.285606 -24428.682930  -6069.287372      -.932390                    
P  8  26592.489024    420.005240   3259.321153   -119.827177                    
V  8  -4085.148638   2116.380822  31507.062553      -.014254                    
P  9  -4216.881001 -14863.609751 -22227.417783     84.281082                    
V  9  26414.777737  -4125.818577  -2121.880179       .017107                    
P 10   5531.291117 -16191.687013  20110.886453    106.450484                    
V 10  15845.453652  20476.149916  12367.583913       .005474                    
P 11   7404.594268  15153.829621 -20652.794340     22.534302                    
V 11 -25081.726442   7813.992281  -2970.002365       .005814                    
P 12  -9846.725456 -23166.140290  -8478.200526    -53.526591                    
V 12   8512.513898   7233.005305 -29243.400339      -.013126                    
P 13   9546.897923  12273.781153  21430.030146    200.273946                    
V 13 -12244.635564  24482.102006  -8496.977734       .030486                    
P 14 -17092.049301   7757.564275 -18665.631159     36.893996                    
V 14   8965.948683 -22126.423295 -17416.321936       .021500                    
P 16 -10117.102922  11677.210833  21665.444638    170.909523                    
V 16 -16298.512408 -21948.792815   4391.329039       .023689                    
P 17  17266.107917  -5541.751273 -19340.638313     57.049712                    
V 17  -8715.739934  23096.137943 -14516.772032      -.012152                    
P 18 -19203.703009 -15616.169371  -9942.147746   -239.575692                    
V 18  -5097.374187 -11953.402962  27832.786867       .015646                    
P 19  -5725.574890  24362.795450  -8584.412206     59.976260                    
V 19  -7570.734488   8570.241076  29174.055924       .026384                    
P 20  12573.439148  22814.392598  -5377.594923    -28.470560                    
V 20  -6429.023444  -3524.743261 -30538.854766      -.005573                    
P 21 -23003.176104  -6943.415046  12077.206538     78.590735                    
V 21  14691.552838  -3705.083472  25573.319134      -.001280                    
P 22 -18364.200698  -3270.150232 -18765.863539    195.234805                    
V 22 -12170.494773 -20954.112668  15387.666261       .012352                    
P 23   3262.312937  20515.189579  16337.939705    193.472639                    
V 23 -10027.543422  18498.783476 -21341.398614       .037049                    
P 24 -12228.005290 -13173.568041  19662.123025     24.642317                    
V 24  24506.190989  -2941.192737  13691.794411       .029223                    
P 25  17588.618876   9120.610600  17980.073864    415.551677                    
V 25 -21348.428682   6183.919246  18263.680260       .124793                    
P 26   7736.512693 -24566.386350  -5570.972640   -381.627444                    
V 26   4762.750390  -5015.454780  31780.152464       .140095                    
P 27  23012.272200   5124.545782  13093.049652    130.303780                    
V 27 -14934.699078   4516.191873  25558.698040       .022379                    
P 28  19256.787640   7157.744588 -16680.876504     -5.430648                    
V 28  11140.938167  18693.350985  20125.782414      -.007835                    
P 29  10515.861844 -24155.265858      -.768329      5.241242                    
V 29   2150.143251    670.133567  32637.311976       .002282                    
P 30 -17949.704339 -19445.863866   2554.588356     43.227168                    
V 30    200.325120  -4810.127672 -31155.919128       .011691                    
P 31 -23721.913152   8746.338823   8450.139948     12.065794                    
V 31 -10650.969756  -1172.925376 -29301.804149      -.012139                    
P 32 -11815.253259   8851.519755 -21614.481858     23.459746                    
V 32 -15115.578298 -24205.745977  -1487.971086       .181886                    
EOF
